DIAMOND GREEN           
1 42785U 17036W   22356.59137921  .00013427  00000+0  44415-3 0  9995
2 42785  97.1772  31.1651 0010175  30.5850 329.5983 15.31407682305681
DIAMOND BLUE            
1 42786U 17036X   22356.06899268  .00013689  00000+0  45367-3 0  9994
2 42786  97.1777  30.6492 0010380  32.5186 327.6694 15.31340668305684
LEO VANTAGE 1           
1 43113U 18004C   22356.53015792  .00002422  00000+0  19817-3 0  9993
2 43113  99.2435  96.7182 0397941 346.1420  12.9098 14.54763515251572
O3B FM15                
1 43231U 18024A   22356.38885129 -.00000009  00000+0  00000+0 0  9998
2 43231   0.0505  10.8844 0003085 260.7005  88.3823  5.00116126 87353
O3B FM16                
1 43232U 18024B   22356.24238360 -.00000008  00000+0  00000+0 0  9992
2 43232   0.0502  15.6209 0003082 256.5787  87.7679  5.00115930 87260
O3B FM14                
1 43233U 18024C   22356.28213169 -.00000008  00000+0  00000+0 0  9997
2 43233   0.0495  17.1999 0003018 258.3759  84.3924  5.00115365 87272
O3B FM13                
1 43234U 18024D   22355.13632231 -.00000007  00000+0  00000+0 0  9995
2 43234   0.0597   7.2797 0003914 262.4459  90.2330  5.00115315 87339
O3B FM20                
1 44112U 19020A   22356.50870970 -.00000009  00000+0  00000+0 0  9996
2 44112   0.0511   7.2034 0003403 268.4730  84.2873  5.00115444 67983
O3B FM19                
1 44113U 19020B   22355.13632902 -.00000007  00000+0  00000+0 0  9994
2 44113   0.0695  17.1567 0002564 281.6097  61.2113  5.00115240 67704
O3B FM17                
1 44114U 19020C   22356.41609843 -.00000009  00000+0  00000+0 0  9997
2 44114   0.0329  17.3170 0003200 253.7639  88.8849  5.00115625 67844
O3B FM18                
1 44115U 19020D   22356.36258555 -.00000009  00000+0  00000+0 0  9992
2 44115   0.0516   7.0767 0002973 263.2914  89.6004  5.00115770 67976
SALSAT                  
1 46495U 20068K   22356.46125008  .00004171  00000+0  29338-3 0  9998
2 46495  97.7508 298.1197 0016400   5.4233 354.7168 15.05532831122463
ISS (ZARYA)             
1 25544U 98067A   22356.91798904 -.00008940  00000+0 -15120-3 0  9999
2 25544  51.6381 121.6512 0005894 180.0121 279.7955 15.49539324374455
AEROCUBE 12A            
1 43556U 18046C   22356.35413263  .00041037  00000+0  74209-3 0  9996
2 43556  51.6339 342.2542 0007694  15.6294 344.4930 15.49242996248335
AEROCUBE 12B            
1 43557U 18046D   22356.38747223  .00027302  00000+0  58111-3 0  9999
2 43557  51.6360 350.6269 0007685   6.6258 353.4828 15.44722279248179
LEMUR-2-VU              
1 43558U 18046E   22356.26278303  .00159074  00000+0  12080-2 0  9991
2 43558  51.6307 308.4255 0007571  65.0816 295.0968 15.71269145248770
LEMUR-2-ALEXANDER       
1 43559U 18046F   22355.06258954  .00531056  00000+0  19293-2 0  9996
2 43559  51.6346 307.1919 0014142 117.8903 242.3535 15.86474679248469
LEMUR-2-YUASA           
1 43560U 18046G   22356.27505383  .00330054  00000+0  15692-2 0  9997
2 43560  51.6386 305.5465 0014244 117.4482 242.7971 15.81299965248819
LEMUR-2-TOMHENDERSON    
1 43561U 18046H   22356.15601975  .00146909  00000+0  13716-2 0  9998
2 43561  51.6385 315.9835 0008087  44.6234 315.5412 15.66280231248222
ICS-EF (ISS DEB)        
1 45265U 98067RJ  22356.49892739  .00071573  00000+0  41163-3 0  9991
2 45265  51.6327  74.6617 0002432 239.8165 120.2595 15.78067007161153
ISS DEB                 
1 47853U 98067RZ  22356.05090444  .00016236  00000+0  21827-3 0  9991
2 47853  51.6401 113.1683 0001672 333.4016  26.6890 15.58044840101119
MMSATS-1                
1 47976U 98067SJ  22356.54120711  .00071962  00000+0  52098-3 0  9993
2 47976  51.6370  92.8114 0002502 315.7525 158.6393 15.72785472 99707
CSS (TIANHE)            
1 48274U 21035A   22356.49292028  .00018471  00000+0  22765-3 0  9995
2 48274  41.4755 152.5615 0004036 191.3376 270.7980 15.59755232 94203
ISS (NAUKA)             
1 49044U 21066A   22355.56471600  .00013118  00000+0  23647-3 0  9990
2 49044  51.6435 128.3476 0003498 181.8185 284.0437 15.50115269374247
FREGAT DEB              
1 49271U 11037PF  22356.53467270 -.00007828  00000+0 -24125-1 0  9998
2 49271  51.5935  76.6332 0972879  76.2692 294.4406 11.98747342 69666
LIGHT-1                 
1 51509U 98067TG  22356.28130346  .00264567  36857-4  84875-3 0  9993
2 51509  51.6347  92.7520 0007401 249.3744 110.6469 15.90479954 50395
KITSUNE                 
1 52148U 98067TK  22356.41350303  .00089443  00000+0  71718-3 0  9991
2 52148  51.6356 107.7394 0004601 259.0766 212.9834 15.70259660 42595
PROGRESS-MS 20          
1 52795U 22059A   22355.56471600  .00013118  00000+0  23647-3 0  9990
2 52795  51.6435 128.3476 0003498 181.8185 284.0437 15.50115269374244
ISS DEB                 
1 52952U 98067TP  22351.50219619  .14096092  12476-4  84766-3 0  9998
2 52952  51.6141 129.0222 0006312 290.5994  69.4356 16.41434383 26256
CSS (WENTIAN)           
1 53239U 22085A   22355.19211806  .00017341  00000+0  21445-3 0  9998
2 53239  41.4752 160.4659 0003865 180.9001 167.6540 15.59702119 93998
1998-067TQ              
1 53305U 98067TQ  22356.40710876  .00126051  00000+0  99650-3 0  9993
2 53305  51.6358 115.4418 0005674 264.8616  95.1734 15.70441404 23975
YUZGU 8                 
1 53306U 98067TR  22356.45314537  .00211250  00000+0  13013-2 0  9997
2 53306  51.6325 113.4816 0005855 281.7535  78.2808 15.75992636 24001
1998-067TS              
1 53307U 98067TS  22356.39697207  .00184143  00000+0  11721-2 0  9993
2 53307  51.6321 113.8457 0005731 275.7205  84.3141 15.75327500 24025
YUZGU 9 (RS3S)          
1 53308U 98067TT  22356.34919584  .00185700  00000+0  12119-2 0  9996
2 53308  51.6336 114.2868 0005605 276.3883  83.6478 15.74749032 24046
YUZGU 7 (RS1S)          
1 53309U 98067TU  22356.50868382  .00198530  00000+0  12340-2 0  9995
2 53309  51.6326 113.0916 0006257 280.0470  79.9824 15.75822913 24027
YUZGU 11 (RS5S)         
1 53310U 98067TV  22356.47444724  .00192805  00000+0  12489-2 0  9996
2 53310  51.6340 113.6225 0005754 275.4432  84.5911 15.74898052 24048
YUZGU 12 (RS6S)         
1 53311U 98067TW  22356.47576995  .00214884  00000+0  12685-2 0  9993
2 53311  51.6306 112.8671 0005799 282.7770  77.2581 15.76948410 24073
TSIOLKOVSKY-RYAZAN 1 (*)
1 53312U 98067TX  22356.51557143  .00193564  00000+0  12234-2 0  9994
2 53312  51.6323 113.1472 0006561 280.8180  79.2081 15.75453753 24019
TSIOLKOVSKY-RYAZAN 2 (*)
1 53313U 98067TY  22356.50945876  .00192234  00000+0  12098-2 0  9999
2 53313  51.6339 113.1076 0006138 283.1444  76.8871 15.75559288 24061
YUZGU 10 (RS4S)         
1 53321U 98067TZ  22356.46191691  .00185544  00000+0  11864-2 0  9997
2 53321  51.6338 113.5373 0005870 277.4123  82.6209 15.75217787 24059
YUZGU UA                
1 53322U 98067UA  22356.50632710  .00194827  00000+0  11902-2 0  9992
2 53322  51.6329 113.0794 0005916 281.1983  78.8352 15.76231296 24013
HSU-SAT1                
1 53462U 98067UB  22356.70563843  .00084448  00000+0  82820-3 0  9994
2 53462  51.6354 115.9291 0008024 265.8479  94.1599 15.65310619 20623
FUTABA                  
1 53463U 98067UC  22356.71610446  .00121130  00000+0  10018-2 0  9997
2 53463  51.6333 114.4855 0008340 271.1936  88.8106 15.69349109 20646
TUMNANOSAT              
1 53464U 98067UD  22356.59388968  .00178815  00000+0  12055-2 0  9990
2 53464  51.6329 113.6604 0008746 278.4091  81.5916 15.73990743 20647
D3                      
1 53767U 98067UE  22356.39975572  .00056512  00000+0  66934-3 0  9992
2 53767  51.6374 119.9118 0005202 278.5383  81.5021 15.60670239 16666
BEAVERCUBE              
1 53768U 98067UF  22355.57392814  .00064200  00000+0  76692-3 0  9999
2 53768  51.6377 124.1387 0003740 260.6691  99.3879 15.60400592 16543
CLICK-A                 
1 53769U 98067UG  22356.08567857  .00096179  00000+0  97138-3 0  9996
2 53769  51.6445 120.0985 0005243 272.5487  87.4908 15.64536983 16644
CAPSAT 1                
1 53770U 98067UH  22356.60179252  .00190771  00000+0  13405-2 0  9991
2 53770  51.6346 115.2356 0007720 287.2136  72.8018 15.72997429 16757
JAGSAT 1                
1 53771U 98067UJ  22355.91173128  .00247003  00000+0  15604-2 0  9995
2 53771  51.6324 118.1188 0008120 287.0250  72.9859 15.75290477 16643
ISS DEB                 
1 53772U 98067UK  22356.36596158  .00101312  00000+0  99861-3 0  9998
2 53772  51.6359 118.9201 0006304 255.5592 104.4704 15.65120018 16672
SOYUZ-MS 22             
1 53879U 22116A   22355.56471600  .00013118  00000+0  23647-3 0  9998
2 53879  51.6435 128.3476 0003498 181.8185 284.0437 15.50115269374248
CREW DRAGON 5           
1 53963U 22124A   22355.56471600  .00013118  00000+0  23647-3 0  9991
2 53963  51.6435 128.3476 0003498 181.8185 284.0437 15.50115269374242
PROGRESS-MS 21          
1 54155U 22140A   22355.56471600  .00013118  00000+0  23647-3 0  9993
2 54155  51.6435 128.3476 0003498 181.8185 284.0437 15.50115269374246
CSS (MENGTIAN)          
1 54216U 22143A   22355.19211806  .00017341  00000+0  21445-3 0  9999
2 54216  41.4752 160.4659 0003865 180.9001 167.6540 15.59702119 93994
CYGNUS NG-18            
1 54232U 22149A   22355.56471600  .00013118  00000+0  23647-3 0  9998
2 54232  51.6435 128.3476 0003498 181.8185 284.0437 15.50115269374242
TIANZHOU-5              
1 54237U 22152A   22355.19211806  .00017341  00000+0  21445-3 0  9992
2 54237  41.4752 160.4659 0003865 180.9001 167.6540 15.59702119 93997
DRAGON CRS-26           
1 54371U 22159A   22355.56471600  .00013118  00000+0  23647-3 0  9993
2 54371  51.6435 128.3476 0003498 181.8185 284.0437 15.50115269374246
SHENZHOU-15             
1 54379U 22162A   22355.19211806  .00017341  00000+0  21445-3 0  9990
2 54379  41.4752 160.4659 0003865 180.9001 167.6540 15.59702119 93994
1998-067UL              
1 54534U 98067UL  22356.36679297  .00044758  00000+0  72949-3 0  9999
2 54534  51.6405 124.1781 0005392 201.8766 158.1995 15.52151274  3168
